STARLINK-36849          
1 68304U 26057L   26088.16668981 -.01154371  43711-3 -20468-2 0  9995
2 68304  97.2795 211.3248 0001263  50.6103 314.7841 16.01947472  2348
STARLINK-36277          
1 68305U 26057M   26088.16668981 -.01140677  42858-3 -19983-2 0  9991
2 68305  97.2791 211.3269 0001343  52.2794 318.7176 16.02152894  2501
STARLINK-36307          
1 68306U 26057N   26088.16668981 -.01151261  43544-3 -20293-2 0  9992
2 68306  97.2794 211.3258 0001324  55.3057 312.4052 16.02048355  2441
STARLINK-36264          
1 68307U 26057P   26088.16668981 -.01162967  44497-3 -20199-2 0  9991
2 68307  97.2792 211.3286 0001386  55.8358 318.6461 16.02303898  2503
STARLINK-37138          
1 68308U 26057Q   26088.16668981 -.01158737  44245-3 -20018-2 0  9993
2 68308  97.2786 211.3288 0001345  59.4577 317.0279 16.02395503  2174
STARLINK-37149          
1 68309U 26057R   26088.16668981 -.01161623  44509-3 -19933-2 0  9999
2 68309  97.2784 211.3299 0001367  54.9348 324.1474 16.02511355  2288
STARLINK-37148          
1 68310U 26057S   26088.16668981 -.01160607  44558-3 -19644-2 0  9995
2 68310  97.2782 211.3323 0001432  58.0193 326.5034 16.02745728  2395
STARLINK-37140          
1 68311U 26057T   26088.16668981 -.01160536  44495-3 -19774-2 0  9991
2 68311  97.2784 211.3314 0001317  53.9410 328.0271 16.02632990  2550
STARLINK-36854          
1 68312U 26057U   26088.16668981 -.01151049  43945-3 -19341-2 0  9990
2 68312  97.2782 211.3337 0001428  52.3621 334.5975 16.02869121  2342
STARLINK-36815          
1 68313U 26057V   26088.16668981 -.01157330  44449-3 -19318-2 0  9994
2 68313  97.2784 211.3352 0001294  52.8223 337.1565 16.02983193  2346
STARLINK-37155          
1 68314U 26057W   26088.16668981 -.01161812  44911-3 -19083-2 0  9998
2 68314  97.2779 211.3377 0001428  55.6516 340.5778 16.03257647  2391
STARLINK-37150          
1 68315U 26057X   26087.83335648 -.01160866  45195-3 -18334-2 0  9994
2 68315  97.2786 210.9705 0001205  87.5524 182.8305 16.03920378  2331
STARLINK-37154          
1 68316U 26057Y   26087.83335648 -.01150392  44657-3 -17737-2 0  9996
2 68316  97.2780 210.9743 0001048  74.8273 204.3137 16.04322357  2239
STARLINK-37139          
1 68317U 26057Z   26087.83335648 -.01163941  45563-3 -18089-2 0  9999
2 68317  97.2782 210.9729 0001130  81.7529 194.4132 16.04191338  2089
STARLINK-37113          
1 68318U 26057AA  26087.83335648 -.01151235  44795-3 -17595-2 0  9990
2 68318  97.2782 210.9756 0000964  70.5301 211.7389 16.04468956  2336
PROGRESS-MS 33          
1 68319U 26058A   26088.13267411  .00012260  00000+0  23326-3 0  9996
2 68319  51.6344 336.2407 0006215 245.2164 114.8178 15.48624340   811
